GLOBALSTAR M035 [-]     
1 25851U 99037A   24016.56399854 -.00000040  00000+0  89161-3 0  9993
2 25851  51.9944 129.2972 0013535 218.0189 228.4615 11.04528099 39068
GLOBALSTAR M032 [-]     
1 25852U 99037B   24016.34265762 -.00000007  00000+0  19318-2 0  9999
2 25852  51.9990 350.7238 0009377  14.3084 345.7979 11.19049656 76819
GLOBALSTAR M051 [-]     
1 25853U 99037C   24016.24007540 -.00000077  00000+0 -13142-3 0  9995
2 25853  51.9754 210.3631 0002147  39.5478 320.5489 11.42195810 73207
GLOBALSTAR M030 [-]     
1 25854U 99037D   24016.51674026 -.00000093  00000+0 -39283-3 0  9997
2 25854  51.9894  48.7146 0004403 194.5661 165.5029 11.55086811 90222
GLOBALSTAR M048 [-]     
1 25872U 99041A   24016.54886100 -.00000053  00000+0  45294-3 0  9997
2 25872  51.9363 124.6324 0012789  13.0790  75.2333 11.33842486 66265
GLOBALSTAR M026 [-]     
1 25873U 99041B   24016.39336574 -.00000033  00000+0  11493-2 0  9997
2 25873  51.9989 253.0998 0002100  96.2295 313.6984 11.06835206 91152
GLOBALSTAR M043 [-]     
1 25874U 99041C   24016.57036078 -.00000064  00000+0  12783-3 0  9992
2 25874  51.9357 211.5974 0013479 146.1328 246.4229 11.25674182 64585
GLOBALSTAR M028 [-]     
1 25875U 99041D   24016.15751065 -.00000046  00000+0  35186-3 0  9999
2 25875  51.9636 297.6945 0064149  26.7658 333.6491 12.50548239125364
